{
  "norad_id": 68244,
  "name": "STARLINK-36310",
  "history": [
    {
      "epoch": "2026-03-28T22:00:01.999584Z",
      "apogee_km": 328.74828178083317,
      "perigee_km": 327.4231321739344,
      "latitude_deg": 53.29916360220282,
      "longitude_deg": 147.95160851971377,
      "height_km": 333.990542410231,
      "semi_major_axis_km": 6706.2227069773835,
      "eccentricity": 9.88e-05,
      "inclination_deg": 53.1593,
      "raan_deg": 216.2027,
      "arg_perigee_deg": 103.4922,
      "mean_anomaly_deg": 345.365,
      "mean_motion_rev_day": 15.80832312
    },
    {
      "epoch": "2026-03-29T04:00:01.999584Z",
      "apogee_km": 328.8747380388777,
      "perigee_km": 327.4074043968949,
      "latitude_deg": 49.88632511776356,
      "longitude_deg": 30.52307025905723,
      "height_km": 333.37156498008903,
      "semi_major_axis_km": 6706.2780712178865,
      "eccentricity": 0.0001094,
      "inclination_deg": 53.1598,
      "raan_deg": 214.9484,
      "arg_perigee_deg": 114.7584,
      "mean_anomaly_deg": 317.6994,
      "mean_motion_rev_day": 15.80812736
    },
    {
      "epoch": "2026-03-30T03:58:19.718400Z",
      "apogee_km": 329.2770355937555,
      "perigee_km": 326.3089909698774,
      "latitude_deg": 5.194196881021238e-05,
      "longitude_deg": -37.2004766813285,
      "height_km": 328.48615538123454,
      "semi_major_axis_km": 6705.930013281816,
      "eccentricity": 0.0002213,
      "inclination_deg": 53.1597,
      "raan_deg": 209.9428,
      "arg_perigee_deg": 81.3468,
      "mean_anomaly_deg": 278.7806,
      "mean_motion_rev_day": 15.80935811
    }
  ]
}